STARLINK-5611
1 55761U 23028W   26060.91281192  .00076418  00000+0  64030-2 0  9996
2 55761  70.0017 244.2508 0004254 291.5436  68.5269 14.97960572165368
STARLINK-34096
1 64043U 25102X   26061.16817913 -.00136975  00000+0 -11817-1 0  9999
2 64043  70.0019 133.4956 0002058 104.1254 256.0133 14.97939880 44713
